STARLINK-31048          
1 58544U 23192P   26068.39407488  .00000536  00000+0  30230-4 0  9993
2 58544  53.1609  63.8180 0001316  94.5572 265.5580 15.30193289125944
TEVEL2-2                
1 63219U 25052K   26068.64848259  .00020339  00000+0  69428-3 0  9991
2 63219  97.3987 324.7700 0004693 105.7930 254.3828 15.30343745 54855
